GPS BIIF-4              
1 39166U 13023A   26060.98893270  .00000006  00000+0  00000+0 0  9998
2 39166  54.5878 273.3391 0141552  49.8819 311.3944  2.00564153 93732
INSAT-3D                
1 39216U 13038B   26062.96873667 -.00000351  00000+0  00000+0 0  9992
2 39216   1.6544  83.9201 0001772 240.8778 315.1496  1.00273595 46022
GPS BIIF-5              
1 39533U 14008A   26061.48588350 -.00000013  00000+0  00000+0 0  9995
2 39533  53.6376 153.6733 0082226 228.2234 131.0919  2.00552925 87544
LUCH 5V                 
1 39727U 14023A   26063.10444079 -.00000279  00000+0  00000+0 0  9991
2 39727   4.8741  70.7773 0002986 278.0466 305.3623  1.00271806 43300
GPS BIIF-6              
1 39741U 14026A   26062.76125815 -.00000097  00000+0  00000+0 0  9993
2 39741  56.5468 335.6247 0039878 324.4781  35.2898  2.00568709 86426
GPS BIIF-7              
1 40105U 14045A   26062.35011831  .00000016  00000+0  00000+0 0  9997
2 40105  55.2804  92.6803 0031529 120.5063 239.8766  2.00551390 83952
GSAT0201 (GALILEO 5)    
1 40128U 14050A   26062.23675925 -.00000027  00000+0  00000+0 0  9998
2 40128  48.9889 277.7718 1657553 175.2875 186.5034  1.85520013 76352
GSAT0202 (GALILEO 6)    
1 40129U 14050B   26061.95370111 -.00000024  00000+0  00000+0 0  9993
2 40129  49.0058 276.8679 1658464 176.0142 185.5046  1.85520711 78514
GPS BIIF-8              
1 40294U 14068A   26062.22833175 -.00000074  00000+0  00000+0 0  9995
2 40294  56.9187  35.0371 0062748  68.0438 292.6092  2.00569742 83086
GLONASS-K 2             
1 40315U 14075A   26060.84023701 -.00000015  00000+0  00000+0 0  9994
2 40315  63.6170 194.0851 0020735 205.7160 154.1408  2.13101099 87569
GPS BIIF-9              
1 40534U 15013A   26062.35961980 -.00000013  00000+0  00000+0 0  9996
2 40534  53.1865 208.5527 0108741  39.7842 320.9512  2.00557636 79708
GSAT0203 (GALILEO 7)    
1 40544U 15017A   26058.52158611 -.00000103  00000+0  00000+0 0  9994
2 40544  56.8234 344.5881 0005161 295.0116  64.9415  1.70475495 67337
GSAT0204 (GALILEO 8)    
1 40545U 15017B   26058.19060141 -.00000102  00000+0  00000+0 0  9997
2 40545  56.8295 344.6151 0004389 286.3298  73.6287  1.70475370 30371
GPS BIIF-10             
1 40730U 15033A   26062.52018166 -.00000008  00000+0  00000+0 0  9998
2 40730  54.0652 271.4414 0114474  28.9620 331.7017  2.00561598 77876
METEOSAT-11 (MSG-4)     
1 40732U 15034A   26063.15886770  .00000051  00000+0  00000+0 0  9992
2 40732   2.9369  71.6822 0001802 270.6697 246.1513  1.00266022  6165
GSAT0205 (GALILEO 9)    
1 40889U 15045A   26043.95434207  .00000078  00000+0  00000+0 0  9996
2 40889  53.6403 225.6057 0359599  59.9658 303.5577  1.67410800 64211
GSAT0206 (GALILEO 10)   
1 40890U 15045B   26061.69895769  .00000010  00000+0  00000+0 0  9999
2 40890  54.9811 224.5416 0003832  50.0037 309.9714  1.70473640 65226
